norad_id,name,regime,epoch,line1,line2,inclination,eccentricity,mean_motion,raan,arg_pericenter,mean_anomaly
26566,COSMOS 2374 (GLONASS),NSO,04188.66010131,1 26566U 00063C   04188.66010131  .00000038  00000-0  10000-3 0  1417\,2 26566  64.5324 224.4283 0043327 222.9856 284.7361  2.13098338 29019,64.5324,0.0043327,2.13098338,224.4283,222.9856,284.7361
26566,COSMOS 2374 (GLONASS),NSO,04189.59300279,1 26566U 00063C   04189.59300279 +.00000041 +00000-0 +10000-3 0 0144\,2 26566 064.5323 224.3969 0043341 222.9934 280.4071 02.1309836802903,64.5323,0.0043341,2.13098368,224.3969,222.9934,280.4071
26566,COSMOS 2374 (GLONASS),NSO,04190.06035792,1 26566U 00063C   04190.06035792  .00000044  00000-0  10000-3 0  1422\,2 26566  64.5325 224.3815 0043339 223.0009 278.9325  2.13098372 29041,64.5325,0.0043339,2.13098372,224.3815,223.0009,278.9325
26566,COSMOS 2374 (GLONASS),NSO,04190.53125454,1 26566U 00063C   04190.53125454 +.00000048 +00000-0 +10000-3 0 0144\,2 26566 064.5322 224.3655 0043359 222.9719 280.2125 02.1309842002905,64.5322,0.0043359,2.1309842,224.3655,222.9719,280.2125
26566,COSMOS 2374 (GLONASS),NSO,04191.47524546,1 26566U 00063C   04191.47524546  .00000060  00000-0  10000-3 0  1437\,2 26566  64.5322 224.3341 0043351 222.9426 284.4277  2.13098433 29076,64.5322,0.0043351,2.13098433,224.3341,222.9426,284.4277
26566,COSMOS 2374 (GLONASS),NSO,04192.76666361,1 26566U 00063C   04192.76666361  .00000077  00000-0  10000-3 0  1441\,2 26566  64.5324 224.2900 0043382 222.9032 195.1852  2.13098483 29101,64.5324,0.0043382,2.13098483,224.29,222.9032,195.1852
26566,COSMOS 2374 (GLONASS),NSO,04193.75938610,1 26566U 00063C   04193.75938610 +.00000088 +00000-0 +10000-3 0 0147\,2 26566 064.5329 224.2565 0043372 222.8987 236.7616 02.1309853802912,64.5329,0.0043372,2.13098538,224.2565,222.8987,236.7616
26566,COSMOS 2374 (GLONASS),NSO,04194.15838682,1 26566U 00063C   04194.15838682  .00000092  00000-0  10000-3 0  1451\,2 26566  64.5331 224.2432 0043392 222.9000 182.8560  2.13098562 29135,64.5331,0.0043392,2.13098562,224.2432,222.9,182.856
26566,COSMOS 2374 (GLONASS),NSO,04194.60918414,1 26566U 00063C   04194.60918414 +.00000095 +00000-0 +10000-3 0 0146\,2 26566 064.5329 224.2277 0043413 222.8524 168.7361 02.1309861102914,64.5329,0.0043413,2.13098611,224.2277,222.8524,168.7361
26566,COSMOS 2374 (GLONASS),NSO,04195.63195124,1 26566U 00063C   04195.63195124  .00000099  00000-0  10000-3 0  1460\,2 26566  64.5333 224.1936 0043431 222.8631 233.3468  2.13098688 29169,64.5333,0.0043431,2.13098688,224.1936,222.8631,233.3468
26566,COSMOS 2374 (GLONASS),NSO,04196.54902330,1 26566U 00063C   04196.54902330 +.00000099 +00000-0 +10000-3 0 0148\,2 26566 064.5330 224.1629 0043435 222.9125 216.8336 02.1309872702918,64.533,0.0043435,2.13098727,224.1629,222.9125,216.8336
26566,COSMOS 2374 (GLONASS),NSO,04196.94228186,1 26566U 00063C   04196.94228186  .00000098  00000-0  10000-3 0  1470\,2 26566  64.5331 224.1499 0043443 222.9857 158.4504  2.13098760 29197,64.5331,0.0043443,2.1309876,224.1499,222.9857,158.4504
26566,COSMOS 2374 (GLONASS),NSO,04197.87288266,1 26566U 00063C   04197.87288266 +.00000094 +00000-0 +10000-3 0 0150\,2 26566 064.5327 224.1181 0043447 222.9760 152.3754 02.1309878702921,64.5327,0.0043447,2.13098787,224.1181,222.976,152.3754
26566,COSMOS 2374 (GLONASS),NSO,04198.50878729,1 26566U 00063C   04198.50878729  .00000091  00000-0  10000-3 0  1482\,2 26566  64.5326 224.0966 0043450 222.9823 280.2064  2.13098791 29223,64.5326,0.004345,2.13098791,224.0966,222.9823,280.2064
26566,COSMOS 2374 (GLONASS),NSO,04199.45276152,1 26566U 00063C   04199.45276152 +.00000086 +00000-0 +10000-3 0 0149\,2 26566 064.5325 224.0646 0043457 222.9329 284.4311 02.1309882102924,64.5325,0.0043457,2.13098821,224.0646,222.9329,284.4311
26566,COSMOS 2374 (GLONASS),NSO,04200.40276534,1 26566U 00063C   04200.40276534  .00000082  00000-0  10000-3 0  1492\,2 26566  64.5328 224.0320 0043498 222.9063 293.2593  2.13098868 29267,64.5328,0.0043498,2.13098868,224.032,222.9063,293.2593
26566,COSMOS 2374 (GLONASS),NSO,04201.71593208,1 26566U 00063C   04201.71593208  .00000080  00000-0  10000-3 0  1507\,2 26566  64.5350 223.9873 0043602 222.8151 220.7570  2.13098990 29296,64.535,0.0043602,2.1309899,223.9873,222.8151,220.757
26566,COSMOS 2374 (GLONASS),NSO,04202.69396259,1 26566U 00063C   04202.69396259 +.00000082 +00000-0 +10000-3 0 0152\,2 26566 064.5318 223.9545 0043475 222.8256 251.0389 02.1309864802931,64.5318,0.0043475,2.13098648,223.9545,222.8256,251.0389
26566,COSMOS 2374 (GLONASS),NSO,04203.15059505,1 26566U 00063C   04203.15059505  .00000084  00000-0  10000-3 0  1519\,2 26566  64.5318 223.9386 0043485 222.7911 241.3822  2.13098663 29321,64.5318,0.0043485,2.13098663,223.9386,222.7911,241.3822
26566,COSMOS 2374 (GLONASS),NSO,04203.94069626,1 26566U 00063C   04203.94069626 +.00000088 +00000-0 +10000-3 0 0153\,2 26566 064.5317 223.9118 0043486 222.8160 127.4871 02.1309867102933,64.5317,0.0043486,2.13098671,223.9118,222.816,127.4871
26566,COSMOS 2374 (GLONASS),NSO,04204.92032144,1 26566U 00063C   04204.92032144 +.00000095 +00000-0 +10000-3 0 0153\,2 26566 064.5316 223.8788 0043508 222.8329 158.9950 02.1309869102936,64.5316,0.0043508,2.13098691,223.8788,222.8329,158.995
26566,COSMOS 2374 (GLONASS),NSO,04205.54805045,1 26566U 00063C   04205.54805045 +.00000100 +00000-0 +10000-3 0 0155\,2 26566 064.5316 223.8576 0043550 222.8083 280.5856 02.1309870602937,64.5316,0.004355,2.13098706,223.8576,222.8083,280.5856
26566,COSMOS 2374 (GLONASS),NSO,04206.48627903,1 26566U 00063C   04206.48627903  .00000108  00000-0  10000-3 0  1530\,2 26566  64.5317 223.8264 0043535 222.8326 280.3284  2.13098733 29391,64.5317,0.0043535,2.13098733,223.8264,222.8326,280.3284
26566,COSMOS 2374 (GLONASS),NSO,04207.43023797,1 26566U 00063C   04207.43023797 +.00000116 +00000-0 +10000-3 0 0155\,2 26566 064.5317 223.7945 0043554 222.8282 284.4969 02.1309877102941,64.5317,0.0043554,2.13098771,223.7945,222.8282,284.4969
26566,COSMOS 2374 (GLONASS),NSO,04208.09917166,1 26566U 00063C   04208.09917166  .00000119  00000-0  10000-3 0  1545\,2 26566  64.5312 223.7712 0043604 222.7425  77.7596  2.13098779 29427,64.5312,0.0043604,2.13098779,223.7712,222.7425,77.7596
26566,COSMOS 2374 (GLONASS),NSO,04208.38024161,1 26566U 00063C   04208.38024161 +.00000120 +00000-0 +10000-3 0 0155\,2 26566 064.5322 223.7625 0043602 222.8885 293.2390 02.1309885502943,64.5322,0.0043602,2.13098855,223.7625,222.8885,293.239
26566,COSMOS 2374 (GLONASS),NSO,04209.16168022,1 26566U 00063C   04209.16168022  .00000121  00000-0  10000-3 0  1557\,2 26566  64.5320 223.7358 0043624 222.8379 172.7753  2.13098867 29455,64.532,0.0043624,2.13098867,223.7358,222.8379,172.7753
26566,COSMOS 2374 (GLONASS),NSO,04209.70253225,1 26566U 00063C   04209.70253225 +.00000119 +00000-0 +10000-3 0 0157\,2 26566 064.5321 223.7182 0043616 222.8973 227.6325 02.1309886602946,64.5321,0.0043616,2.13098866,223.7182,222.8973,227.6325
26566,COSMOS 2374 (GLONASS),NSO,04210.17620590,1 26566U 00063C   04210.17620590  .00000116  00000-0  10000-3 0  1568\,2 26566  64.5320 223.7019 0043619 222.8932 231.0182  2.13098874 29473,64.532,0.0043619,2.13098874,223.7019,222.8932,231.0182
26566,COSMOS 2374 (GLONASS),NSO,04210.64365684,1 26566U 00063C   04210.64365684  .00000112  00000-0  10000-3 0  1577\,2 26566  64.5314 223.6851 0043695 222.7991 229.7261  2.13099101 29484,64.5314,0.0043695,2.13099101,223.6851,222.7991,229.7261
26566,COSMOS 2374 (GLONASS),NSO,04211.58817270,1 26566U 00063C   04211.58817270 +.00000100 +00000-0 +10000-3 0 0160\,2 26566 064.5320 223.6544 0043637 222.8950 234.2145 02.1309888502950,64.532,0.0043637,2.13098885,223.6544,222.895,234.2145
26566,COSMOS 2374 (GLONASS),NSO,04212.01195080,1 26566U 00063C   04212.01195080  .00000094  00000-0  10000-3 0  1581\,2 26566  64.5320 223.6401 0043633 222.8931 199.3198  2.13098886 29513,64.532,0.0043633,2.13098886,223.6401,222.8931,199.3198
26566,COSMOS 2374 (GLONASS),NSO,04212.59270515,1 26566U 00063C   04212.59270515 +.00000085 +00000-0 +10000-3 0 0160\,2 26566 064.5319 223.6204 0043648 222.8673 284.8753 02.1309890602952,64.5319,0.0043648,2.13098906,223.6204,222.8673,284.8753
26566,COSMOS 2374 (GLONASS),NSO,04213.02044080,1 26566U 00063C   04213.02044080  .00000078  00000-0  10000-3 0  1599\,2 26566  64.5321 223.6062 0043641 222.8878 252.9940  2.13098905 29531,64.5321,0.0043641,2.13098905,223.6062,222.8878,252.994
26566,COSMOS 2374 (GLONASS),NSO,04213.52556354,1 26566U 00063C   04213.52556354 +.00000070 +00000-0 +10000-3 0 0161\,2 26566 064.5321 223.5892 0043641 222.8895 280.5003 02.1309892002954,64.5321,0.0043641,2.1309892,223.5892,222.8895,280.5003
26566,COSMOS 2374 (GLONASS),NSO,04214.19882032,1 26566U 00063C   04214.19882032  .00000061  00000-0  10000-3 0  1609\,2 26566  64.5322 223.5669 0043632 222.9030  76.9789  2.13098920 29559,64.5322,0.0043632,2.1309892,223.5669,222.903,76.9789
26566,COSMOS 2374 (GLONASS),NSO,04214.46376529,1 26566U 00063C   04214.46376529 +.00000057 +00000-0 +10000-3 0 0161\,2 26566 064.5322 223.5579 0043619 222.9130 280.2234 02.1309893602956,64.5322,0.0043619,2.13098936,223.5579,222.913,280.2234
26566,COSMOS 2374 (GLONASS),NSO,04215.40770973,1 26566U 00063C   04215.40770973  .00000049  00000-0  10000-3 0  1611\,2 26566  64.5322 223.5259 0043606 222.8904 284.3989  2.13098953 29580,64.5322,0.0043606,2.13098953,223.5259,222.8904,284.3989
26566,COSMOS 2374 (GLONASS),NSO,04215.68504291,1 26566U 00063C   04215.68504291 +.00000048 +00000-0 +10000-3 0 0162\,2 26566 064.5322 223.5168 0043599 222.9060 137.1407 02.1309895602959,64.5322,0.0043599,2.13098956,223.5168,222.906,137.1407
26566,COSMOS 2374 (GLONASS),NSO,04216.79051274,1 26566U 00063C   04216.79051274  .00000048  00000-0  10000-3 0  1620\,2 26566  64.5321 223.4793 0043605 222.8680 265.2467  2.13098968 29610,64.5321,0.0043605,2.13098968,223.4793,222.868,265.2467
